start=new Date('2023-03-07T00:00:00.000Z').valueOf();
sats=[{"MEAN_MOTION":"15.06377546","MEAN_ELEMENT_THEORY":"SGP4","EPOCH":"2023-03-06T14:33:40.404960","TLE_LINE1":"1 45753U 20038Z   23065.60671765  .00010024  00000-0  69129-3 0  9998","SITE":"AFETR","DECAY_DATE":null,"ARG_OF_PERICENTER":"85.5642","OBJECT_TYPE":"PAYLOAD","INCLINATION":"53.0551","MEAN_MOTION_DOT":"0.00010024","EPHEMERIS_TYPE":"0","ECCENTRICITY":"0.00015010","REF_FRAME":"TEME","PERIAPSIS":"546.243","MEAN_MOTION_DDOT":"0.0000000000000","CLASSIFICATION_TYPE":"U","LAUNCH_DATE":"2020-06-13","OBJECT_NAME":"STARLINK-1476","ELEMENT_SET_NO":"999","REV_AT_EPOCH":"15082","COUNTRY_CODE":"US","RA_OF_ASC_NODE":"110.5913","OBJECT_ID":"2020-038Z","BSTAR":"0.00069129000000","RCS_SIZE":"LARGE","TIME_SYSTEM":"UTC","PERIOD":"95.594","TLE_LINE2":"2 45753  53.0551 110.5913 0001501  85.5642 274.5518 15.06377546150824","MEAN_ANOMALY":"274.5518","GP_ID":"227624143","SEMIMAJOR_AXIS":"6925.417","FILE":"3853141","CENTER_NAME":"EARTH","APOAPSIS":"548.322","NORAD_CAT_ID":"45753"},{"EPHEMERIS_TYPE":"0","OBJECT_TYPE":"PAYLOAD","INCLINATION":"53.0550","MEAN_MOTION_DOT":"-0.00004876","REF_FRAME":"TEME","ECCENTRICITY":"0.00014280","TLE_LINE1":"1 45754U 20038AA  23065.80942169 -.00004876  00000-0 -30885-3 0  9997","MEAN_ELEMENT_THEORY":"SGP4","MEAN_MOTION":"15.06377618","EPOCH":"2023-03-06T19:25:34.034016","ARG_OF_PERICENTER":"125.0835","SITE":"AFETR","DECAY_DATE":null,"CLASSIFICATION_TYPE":"U","LAUNCH_DATE":"2020-06-13","MEAN_MOTION_DDOT":"0.0000000000000","PERIAPSIS":"546.293","REV_AT_EPOCH":"15085","COUNTRY_CODE":"US","RA_OF_ASC_NODE":"109.6832","OBJECT_NAME":"STARLINK-1477","ELEMENT_SET_NO":"999","GP_ID":"227623392","MEAN_ANOMALY":"235.0288","APOAPSIS":"548.271","CENTER_NAME":"EARTH","NORAD_CAT_ID":"45754","SEMIMAJOR_AXIS":"6925.417","FILE":"3853141","BSTAR":"-0.00030885000000","OBJECT_ID":"2020-038AA","PERIOD":"95.594","TLE_LINE2":"2 45754  53.0550 109.6832 0001428 125.0835 235.0288 15.06377618150854","RCS_SIZE":"LARGE","TIME_SYSTEM":"UTC"},{"SITE":"AFETR","DECAY_DATE":null,"ARG_OF_PERICENTER":"99.8902","EPOCH":"2023-03-06T19:52:06.190752","MEAN_MOTION":"15.06394985","MEAN_ELEMENT_THEORY":"SGP4","TLE_LINE1":"1 45755U 20038AB  23065.82784943 -.00003570  00000-0 -22093-3 0  9996","ECCENTRICITY":"0.00012420","REF_FRAME":"TEME","MEAN_MOTION_DOT":"-0.00003570","INCLINATION":"53.0543","OBJECT_TYPE":"PAYLOAD","EPHEMERIS_TYPE":"0","PERIAPSIS":"546.369","MEAN_MOTION_DDOT":"0.0000000000000","CLASSIFICATION_TYPE":"U","LAUNCH_DATE":"2020-06-13","ELEMENT_SET_NO":"999","OBJECT_NAME":"STARLINK-1478","RA_OF_ASC_NODE":"109.6018","COUNTRY_CODE":"US","REV_AT_EPOCH":"15084","TIME_SYSTEM":"UTC","RCS_SIZE":"LARGE","TLE_LINE2":"2 45755  53.0543 109.6018 0001242  99.8902 260.2227 15.06394985150848","PERIOD":"95.592","OBJECT_ID":"2020-038AB","BSTAR":"-0.00022093000000","FILE":"3853141","SEMIMAJOR_AXIS":"6925.364","NORAD_CAT_ID":"45755","APOAPSIS":"548.089","CENTER_NAME":"EARTH","MEAN_ANOMALY":"260.2227","GP_ID":"227623642"},{"TLE_LINE2":"2 45756  53.0526 109.6120 0001590  92.6692 267.4479 15.06398171150846","PERIOD":"95.592","TIME_SYSTEM":"UTC","RCS_SIZE":"LARGE","BSTAR":"0.00016693000000","OBJECT_ID":"2020-038AC","NORAD_CAT_ID":"45756","APOAPSIS":"548.320","CENTER_NAME":"EARTH","FILE":"3853141","SEMIMAJOR_AXIS":"6925.354","GP_ID":"227623893","MEAN_ANOMALY":"267.4479","ELEMENT_SET_NO":"999","OBJECT_NAME":"STARLINK-1484","RA_OF_ASC_NODE":"109.6120","REV_AT_EPOCH":"15084","COUNTRY_CODE":"US","PERIAPSIS":"546.118","CLASSIFICATION_TYPE":"U","LAUNCH_DATE":"2020-06-13","MEAN_MOTION_DDOT":"0.0000000000000","ARG_OF_PERICENTER":"92.6692","SITE":"AFETR","DECAY_DATE":null,"TLE_LINE1":"1 45756U 20038AC  23065.82322128  .00002206  00000-0  16693-3 0  9992","MEAN_MOTION":"15.06398171","EPOCH":"2023-03-06T19:45:26.318592","MEAN_ELEMENT_THEORY":"SGP4","REF_FRAME":"TEME","ECCENTRICITY":"0.00015900","EPHEMERIS_TYPE":"0","MEAN_MOTION_DOT":"0.00002206","INCLINATION":"53.0526","OBJECT_TYPE":"PAYLOAD"},{"CLASSIFICATION_TYPE":"U","LAUNCH_DATE":"2020-06-13","MEAN_MOTION_DDOT":"0.0000000000000","PERIAPSIS":"535.208","REF_FRAME":"TEME","ECCENTRICITY":"0.00010580","EPHEMERIS_TYPE":"0","INCLINATION":"53.0519","MEAN_MOTION_DOT":"0.00037490","OBJECT_TYPE":"PAYLOAD","ARG_OF_PERICENTER":"60.1428","SITE":"AFETR","DECAY_DATE":null,"TLE_LINE1":"1 45757U 20038AD  23065.83774170  .00037490  00000-0  22818-2 0  9990","MEAN_MOTION":"15.10085974","MEAN_ELEMENT_THEORY":"SGP4","EPOCH":"2023-03-06T20:06:20.882880","NORAD_CAT_ID":"45757","CENTER_NAME":"EARTH","APOAPSIS":"536.671","FILE":"3853141","SEMIMAJOR_AXIS":"6914.075","GP_ID":"227624641","MEAN_ANOMALY":"299.9668","TLE_LINE2":"2 45757  53.0519 108.8205 0001058  60.1428 299.9668 15.10085974150850","PERIOD":"95.359","TIME_SYSTEM":"UTC","RCS_SIZE":"LARGE","BSTAR":"0.00228180000000","OBJECT_ID":"2020-038AD","RA_OF_ASC_NODE":"108.8205","COUNTRY_CODE":"US","REV_AT_EPOCH":"15085","ELEMENT_SET_NO":"999","OBJECT_NAME":"STARLINK-1486"},{"PERIAPSIS":"533.410","CLASSIFICATION_TYPE":"U","LAUNCH_DATE":"2020-06-13","MEAN_MOTION_DDOT":"0.0000000000000","ARG_OF_PERICENTER":"342.9126","SITE":"AFETR","DECAY_DATE":null,"TLE_LINE1":"1 45758U 20038AE  23065.80764409  .00040063  00000-0  23995-2 0  9999","MEAN_MOTION":"15.10638809","EPOCH":"2023-03-06T19:23:00.449376","MEAN_ELEMENT_THEORY":"SGP4","REF_FRAME":"TEME","ECCENTRICITY":"0.00012190","EPHEMERIS_TYPE":"0","OBJECT_TYPE":"PAYLOAD","MEAN_MOTION_DOT":"0.00040063","INCLINATION":"53.0545","PERIOD":"95.324","TLE_LINE2":"2 45758  53.0545 108.7188 0001219 342.9126  17.1824 15.10638809150859","RCS_SIZE":"LARGE","TIME_SYSTEM":"UTC","BSTAR":"0.00239950000000","OBJECT_ID":"2020-038AE","CENTER_NAME":"EARTH","APOAPSIS":"535.095","NORAD_CAT_ID":"45758","SEMIMAJOR_AXIS":"6912.388","FILE":"3853141","GP_ID":"227622893","MEAN_ANOMALY":"17.1824","ELEMENT_SET_NO":"999","OBJECT_NAME":"STARLINK-1487","RA_OF_ASC_NODE":"108.7188","REV_AT_EPOCH":"15085","COUNTRY_CODE":"US"},{"RA_OF_ASC_NODE":"109.6486","REV_AT_EPOCH":"15084","COUNTRY_CODE":"US","ELEMENT_SET_NO":"999","OBJECT_NAME":"STARLINK-1493","NORAD_CAT_ID":"45759","APOAPSIS":"548.553","CENTER_NAME":"EARTH","FILE":"3853141","SEMIMAJOR_AXIS":"6925.372","GP_ID":"227623143","MEAN_ANOMALY":"267.9954","TLE_LINE2":"2 45759  53.0526 109.6486 0001900  92.1252 267.9954 15.06392215150842","PERIOD":"95.593","TIME_SYSTEM":"UTC","RCS_SIZE":"LARGE","BSTAR":"0.00032126000000","OBJECT_ID":"2020-038AF","ECCENTRICITY":"0.00019000","REF_FRAME":"TEME","EPHEMERIS_TYPE":"0","MEAN_MOTION_DOT":"0.00004506","INCLINATION":"53.0526","OBJECT_TYPE":"PAYLOAD","ARG_OF_PERICENTER":"92.1252","SITE":"AFETR","DECAY_DATE":null,"TLE_LINE1":"1 45759U 20038AF  23065.81679789  .00004506  00000-0  32126-3 0  9996","MEAN_ELEMENT_THEORY":"SGP4","MEAN_MOTION":"15.06392215","EPOCH":"2023-03-06T19:36:11.337696","CLASSIFICATION_TYPE":"U","LAUNCH_DATE":"2020-06-13","MEAN_MOTION_DDOT":"0.0000000000000","PERIAPSIS":"545.922"},{"TLE_LINE1":"1 45760U 20038AG  23065.82047923  .00009303  00000-0  64281-3 0  9995","EPOCH":"2023-03-06T19:41:29.405472","MEAN_MOTION":"15.06389889","MEAN_ELEMENT_THEORY":"SGP4","ARG_OF_PERICENTER":"103.8304","DECAY_DATE":null,"SITE":"AFETR","EPHEMERIS_TYPE":"0","OBJECT_TYPE":"PAYLOAD","MEAN_MOTION_DOT":"0.00009303","INCLINATION":"53.0555","ECCENTRICITY":"0.00013750","REF_FRAME":"TEME","PERIAPSIS":"546.292","CLASSIFICATION_TYPE":"U","LAUNCH_DATE":"2020-06-13","MEAN_MOTION_DDOT":"0.0000000000000","OBJECT_NAME":"STARLINK-1494","ELEMENT_SET_NO":"999","REV_AT_EPOCH":"15085","COUNTRY_CODE":"US","RA_OF_ASC_NODE":"109.6354","BSTAR":"0.00064281000000","OBJECT_ID":"2020-038AG","PERIOD":"95.593","TLE_LINE2":"2 45760  53.0555 109.6354 0001375 103.8304 256.2838 15.06389889150850","RCS_SIZE":"LARGE","TIME_SYSTEM":"UTC","GP_ID":"227624392","MEAN_ANOMALY":"256.2838","CENTER_NAME":"EARTH","APOAPSIS":"548.197","NORAD_CAT_ID":"45760","SEMIMAJOR_AXIS":"6925.380","FILE":"3853141"},{"REV_AT_EPOCH":"15095","COUNTRY_CODE":"US","RA_OF_ASC_NODE":"101.1876","OBJECT_NAME":"STARLINK-1499","ELEMENT_SET_NO":"999","MEAN_ANOMALY":"316.6156","GP_ID":"227624144","FILE":"3853141","SEMIMAJOR_AXIS":"6888.122","NORAD_CAT_ID":"45762","CENTER_NAME":"EARTH","APOAPSIS":"512.593","OBJECT_ID":"2020-038AJ","BSTAR":"0.00235590000000","TIME_SYSTEM":"UTC","RCS_SIZE":"LARGE","TLE_LINE2":"2 45762  53.0556 101.1876 0003784  43.5137 316.6156 15.18628547150954","PERIOD":"94.822","INCLINATION":"53.0556","MEAN_MOTION_DOT":"0.00049402","OBJECT_TYPE":"PAYLOAD","EPHEMERIS_TYPE":"0","ECCENTRICITY":"0.00037840","REF_FRAME":"TEME","EPOCH":"2023-03-06T12:23:14.781120","MEAN_MOTION":"15.18628547","MEAN_ELEMENT_THEORY":"SGP4","TLE_LINE1":"1 45762U 20038AJ  23065.51614330  .00049402  00000-0  23559-2 0  9991","DECAY_DATE":null,"SITE":"AFETR","ARG_OF_PERICENTER":"43.5137","MEAN_MOTION_DDOT":"0.0000000000000","CLASSIFICATION_TYPE":"U","LAUNCH_DATE":"2020-06-13","PERIAPSIS":"507.380"},{"REF_FRAME":"TEME","ECCENTRICITY":"0.00017210","OBJECT_TYPE":"PAYLOAD","MEAN_MOTION_DOT":"0.00009417","INCLINATION":"53.0501","EPHEMERIS_TYPE":"0","DECAY_DATE":null,"SITE":"AFETR","ARG_OF_PERICENTER":"79.0317","MEAN_ELEMENT_THEORY":"SGP4","MEAN_MOTION":"15.06409451","EPOCH":"2023-03-06T20:23:57.257664","TLE_LINE1":"1 45764U 20038AL  23065.84996826  .00009417  00000-0  65010-3 0  9993","MEAN_MOTION_DDOT":"0.0000000000000","CLASSIFICATION_TYPE":"U","LAUNCH_DATE":"2020-06-13","PERIAPSIS":"545.993","RA_OF_ASC_NODE":"109.5026","REV_AT_EPOCH":"15086","COUNTRY_CODE":"US","ELEMENT_SET_NO":"999","OBJECT_NAME":"STARLINK-1502","SEMIMAJOR_AXIS":"6925.320","FILE":"3853141","APOAPSIS":"548.376","CENTER_NAME":"EARTH","NORAD_CAT_ID":"45764","MEAN_ANOMALY":"281.0865","GP_ID":"227623393","RCS_SIZE":"LARGE","TIME_SYSTEM":"UTC","PERIOD":"95.592","TLE_LINE2":"2 45764  53.0501 109.5026 0001721  79.0317 281.0865 15.06409451150868","OBJECT_ID":"2020-038AL","BSTAR":"0.00065010000000"}];
